0 IRIDIUM 33 DEB
1 34073U 97051CG  14155.80557278  .00013100  00000-0  24753-2 0  7061
2 34073 086.3890 024.1061 0015924 154.3688 333.5870 14.64255934278495
0 IRIDIUM 33 DEB
1 34074U 97051CH  14149.60094710  .41101904 -90904-6  18090-1 0  8522
2 34074 086.2703 003.6070 0040063 318.3092 049.9456 16.20292696277838
0 IRIDIUM 33 DEB
1 34075U 97051CJ  14155.45404959  .00007571  00000-0  17443-2 0  6670
2 34075 086.4608 049.3304 0042057 275.1271 143.0809 14.54695778277556
0 IRIDIUM 33 DEB
1 34076U 97051CK  14156.06169391  .00005932  00000-0  11809-2 0  6575
2 34076 086.3402 359.4455 0050390 262.5743 262.0119 14.61117122280025
0 IRIDIUM 33 DEB
1 34077U 97051CL  14156.14125992  .00001534  00000-0  53431-3 0  5317
2 34077 086.3983 035.4828 0017969 251.8587 260.9545 14.34725809276580
0 IRIDIUM 33 DEB
1 34079U 97051CN  14155.51609994  .00001832  00000-0  54102-3 0  5304
2 34079 086.3936 024.9035 0011522 059.2980 010.9531 14.43024273278799
0 IRIDIUM 33 DEB
1 34081U 97051CQ  14155.78852270  .00007097  00000-0  13465-2 0  6534
2 34081 086.3171 356.9477 0055789 351.7620 136.4531 14.63106821280424
0 IRIDIUM 33 DEB
1 34082U 97051CR  14155.98142727  .00006769  00000-0  25910-2 0  6933
2 34082 086.3844 070.8802 0194898 207.0092 286.2410 14.20600647272224
0 IRIDIUM 33 DEB
1 34086U 97051CV  14155.13643117  .00002103  00000-0  73872-3 0  3265
2 34086 086.3920 038.9225 0033099 285.5144 226.9579 14.34263734276533
0 IRIDIUM 33 DEB
1 34088U 97051CX  14155.82913714  .00002040  00000-0  65548-3 0  5696
2 34088 086.4056 032.8268 0009122 264.3717 223.3990 14.38965023277866
0 IRIDIUM 33 DEB
1 34090U 97051CZ  14156.14769941  .00004898  00000-0  10185-2 0  6269
2 34090 086.4254 022.3026 0027277 338.3831 143.5419 14.59682357280249
0 IRIDIUM 33 DEB
1 34091U 97051DA  14155.95170479  .00002822  00000-0  11745-2 0  5054
2 34091 086.3701 045.8119 0088784 044.0885 084.9247 14.23922625274885
0 IRIDIUM 33 DEB
1 34093U 97051DC  14155.78337642  .00007851  00000-0  14066-2 0  5746
2 34093 086.3080 347.5121 0033502 231.7415 256.4309 14.66326529281245
0 IRIDIUM 33 DEB
1 34095U 97051DE  14155.16936287  .00003714  00000-0  11689-2 0  6136
2 34095 086.3856 036.4701 0062559 304.8387 172.8862 14.39079781276738
0 IRIDIUM 33 DEB
1 34097U 97051DG  14155.40802512  .00001684  00000-0  79863-3 0  4252
2 34097 086.2079 016.6145 0106412 104.1758 311.7555 14.16022920273815
0 IRIDIUM 33 DEB
1 34098U 97051DH  14155.47382097  .00005761  00000-0  13406-2 0  6400
2 34098 086.1451 324.0199 0024044 270.8132 171.6180 14.54565483279340
0 IRIDIUM 33 DEB
1 34099U 97051DJ  14155.41711994  .00004037  00000-0  11650-2 0  5578
2 34099 086.3734 025.9083 0016107 221.8112 192.8898 14.44386152277815
0 IRIDIUM 33 DEB
1 34100U 97051DK  14155.11896966  .00010369  00000-0  21704-2 0  6433
2 34100 086.2095 351.9460 0031866 278.4632 221.2700 14.59367598277720
0 IRIDIUM 33 DEB
1 34101U 97051DL  14155.97211287  .00004075  00000-0  17284-2 0  4393
2 34101 086.3881 063.7903 0139154 143.0740 345.8992 14.20072845272830
0 IRIDIUM 33 DEB
1 34102U 97051DM  14155.80628853  .00003472  00000-0  16733-2 0  4788
2 34102 086.3844 067.5841 0127503 161.2432 258.9691 14.14275375272137
0 IRIDIUM 33 DEB
1 34103U 97051DN  14155.16686794  .00003514  00000-0  10700-2 0  5995
2 34103 086.3558 024.2721 0017893 180.0003 298.7947 14.41721423277412
0 IRIDIUM 33 DEB
1 34104U 97051DP  14156.14718098  .00003287  00000-0  79932-3 0  5976
2 34104 086.3514 010.1348 0008405 056.0614 071.1608 14.52548933279305
0 IRIDIUM 33 DEB
1 34105U 97051DQ  14155.14355139  .00007270  00000-0  17265-2 0  6189
2 34105 086.3610 020.9926 0019940 134.9836 344.6412 14.53703041278137
0 IRIDIUM 33 DEB
1 34106U 97051DR  14156.13461634  .00002349  00000-0  68181-3 0  5318
2 34106 086.3680 018.4659 0021017 061.5435 104.3196 14.43875481278618
0 IRIDIUM 33 DEB
1 34107U 97051DS  14155.69343185  .00002271  00000-0  64482-3 0  5436
2 34107 086.3909 023.8035 0020602 107.0686 315.2087 14.44937331278485
0 TELSTAR 11N
1 34111U 09009A   14154.17537221 -.00000255  00000-0  10000-3 0   797
2 34111 000.0022 008.8164 0001848 044.4980 223.8056 01.00270268 19320
0 SL-23 R/B
1 34112U 09009B   14155.63908322 -.00000094  00000-0  00000+0 0   857
2 34112 035.0882 314.8629 6898682 347.8989 008.3988 02.20447099 42433
0 COSMOS 2251 DEB
1 34114U 93036KK  14155.49764616  .00001637  00000-0  69993-3 0  3599
2 34114 074.0702 155.4577 0075448 133.3549 033.4529 14.24205995275242
0 COSMOS 2251 DEB
1 34115U 93036KL  14155.68725735  .00001798  00000-0  45149-3 0  4406
2 34115 074.0205 344.2711 0048017 128.4332 350.6473 14.51355256280666
0 COSMOS 2251 DEB
1 34116U 93036KM  14156.18199138  .00000828  00000-0  28346-3 0  4239
2 34116 074.0492 062.1481 0016093 103.2371 020.2857 14.37737384278302
0 COSMOS 2251 DEB
1 34117U 93036KN  14155.31997411  .00000714  00000-0  28346-3 0  9109
2 34117 074.0441 107.4733 0066256 133.5873 017.8110 14.29337862278682
0 COSMOS 2251 DEB
1 34118U 93036KP  14155.77207904  .00002485  00000-0  61590-3 0   602
2 34118 073.9735 007.4213 0136327 100.4107 357.8546 14.46949150278485
0 COSMOS 2251 DEB
1 34119U 93036KQ  14155.26658826  .00003623  00000-0  11907-2 0   465
2 34119 074.0534 091.6093 0035859 086.4450 034.6636 14.38248751276251
0 COSMOS 2251 DEB
1 34120U 93036KR  14155.48326318  .00000250  00000-0  17498-3 0  6257
2 34120 073.9955 281.1574 0189451 305.4114 121.0841 13.95308891272346
0 COSMOS 2251 DEB
1 34121U 93036KS  14150.94954613  .00000655  00000-0  49770-3 0  5581
2 34121 074.0021 021.6758 0267332 050.3066 049.7504 13.79995471268481
0 COSMOS 2251 DEB
1 34122U 93036KT  14150.86231293  .00000988  00000-0  29829-3 0  9424
2 34122 074.0488 065.8306 0121245 297.8915 125.2335 14.39690771277610
0 COSMOS 2251 DEB
1 34123U 93036KU  14150.93774567  .00002785  00000-0  84877-3 0   140
2 34123 074.0345 070.2145 0018557 090.6331 036.7988 14.42353776277408
0 COSMOS 2251 DEB
1 34124U 93036KV  14150.92623975  .00003268  00000-0  94711-3 0  9038
2 34124 074.0356 063.3165 0024166 099.7602 358.2085 14.44656215277541
0 COSMOS 2251 DEB
1 34126U 93036KX  14150.88892668  .00001797  00000-0  36150-3 0  4260
2 34126 074.0093 309.5197 0069610 102.5621 058.7761 14.60836394281249
0 COSMOS 2251 DEB
1 34127U 93036KY  14148.76608988  .00001509  00000-0  80635-3 0  3206
2 34127 074.1742 267.1097 0137287 184.3492 295.3587 14.09317970271320
0 COSMOS 2251 DEB
1 34128U 93036KZ  14150.83620380  .00002327  00000-0  63442-3 0  4227
2 34128 074.0205 029.5595 0080083 105.3762 021.4115 14.46043416278325
0 COSMOS 2251 DEB
1 34129U 93036LA  14150.99436703  .00001068  00000-0  29563-3 0  4361
2 34129 074.0515 027.2847 0054657 101.8360 012.8923 14.46992635278561
0 COSMOS 2251 DEB
1 34130U 93036LB  14151.00143575  .00001652  00000-0  40872-3 0  4688
2 34130 074.0366 013.9090 0031809 116.8687 352.7495 14.52513368279303
0 COSMOS 2251 DEB
1 34131U 93036LC  14150.94535139  .00003371  00000-0  92937-3 0   496
2 34131 074.1271 072.8730 0006885 058.5359 067.4016 14.47206540277895
0 COSMOS 2251 DEB
1 34134U 93036LF  14156.07087493  .00007229  00000-0  90434-3 0  5866
2 34134 073.9505 242.0676 0062388 041.5834 024.3971 14.81074621283154
0 COSMOS 2251 DEB
1 34136U 93036LH  14155.46217873  .00000576  00000-0  10733-3 0  4723
2 34136 074.0255 269.2718 0116380 017.0240 100.7354 14.63310379282605
0 COSMOS 2251 DEB
1 34139U 93036LL  14155.03390480  .00001494  00000-0  55419-3 0  4039
2 34139 074.0398 103.4037 0065222 130.1076 354.9720 14.31890299275994
0 COSMOS 2251 DEB
1 34141U 93036LN  14155.44949056  .00001546  00000-0  66587-3 0  3840
2 34141 074.0191 143.3814 0074328 146.5535 337.7809 14.23939781274832
0 COSMOS 2251 DEB
1 34142U 93036LP  14154.15287214  .00002779  00000-0  59269-3 0   822
2 34142 073.9974 319.5495 0058358 092.3227 029.2031 14.58340707280753
0 IRIDIUM 33 DEB
1 34143U 97051DW  14156.16436894  .00003668  00000-0  10233-2 0  5298
2 34143 086.4007 029.5665 0014001 251.4174 231.9212 14.46014274277688
0 IRIDIUM 33 DEB
1 34145U 97051DY  14155.06917065  .00001054  00000-0  43137-3 0  2814
2 34145 086.2206 007.3315 0068714 030.6985 122.4091 14.25057170274788
0 IRIDIUM 33 DEB
1 34146U 97051DZ  14155.51367466  .00000864  00000-0  30695-3 0  4432
2 34146 086.2913 012.1550 0036876 319.7767 116.9186 14.32934598276378
0 IRIDIUM 33 DEB
1 34147U 97051EA  14155.26307589  .00008313  00000-0  25053-2 0  5445
2 34147 086.4552 061.1294 0080699 005.2542 120.7777 14.40551827275972
0 IRIDIUM 33 DEB
1 34148U 97051EB  14156.13187367  .00006640  00000-0  15479-2 0  5906
2 34148 086.4132 030.1064 0015819 005.9457 147.0801 14.54609736278715
0 IRIDIUM 33 DEB
1 34150U 97051ED  14155.96407711  .00006729  00000-0  22450-2 0  3900
2 34150 086.4840 067.4025 0075389 014.4878 115.7045 14.35802966276106
0 IRIDIUM 33 DEB
1 34153U 97051EG  14155.46562814  .00063562  00000-0  38933-2 0  7336
2 34153 086.2800 333.1769 0029952 196.3751 223.5425 15.09531593282807
0 IRIDIUM 33 DEB
1 34155U 97051EJ  14155.51134184  .00002165  00000-0  66156-3 0  5316
2 34155 086.4764 055.6733 0046982 302.1485 112.1408 14.40844675276797
0 IRIDIUM 33 DEB
1 34156U 97051EK  14155.15146086  .00010269  00000-0  22596-2 0  6124
2 34156 086.3221 012.9035 0022938 181.3086 299.0108 14.57226260277497
0 IRIDIUM 33 DEB
1 34157U 97051EL  14155.12956287  .00010539  00000-0  21527-2 0  6026
2 34157 086.3802 021.3099 0021665 265.8895 254.1199 14.60659459278687
0 IRIDIUM 33 DEB
1 34159U 97051EN  14156.12491403  .00000506  00000-0  18341-3 0  4520
2 34159 086.3543 026.5469 0029986 317.1502 196.4733 14.31218878276649
0 IRIDIUM 33 DEB
1 34160U 97051EP  14156.13376271  .00003618  00000-0  11204-2 0  5504
2 34160 086.4141 043.3955 0039894 285.6091 227.6820 14.40540185276276
0 TITAN 3C TRANSTAGE DEB
1 34169U 65108DC  14154.82852563  .00000202  00000-0  45252-3 0  3075
2 34169 028.4870 012.4564 6934546 006.6380 343.0477 02.68745362107577
